{"1":{"name":"My Company","vatNumber":"0123456789","address":{"streetName":"Sesame Street","streetNumber":"1","zipcode":"12345","city":"My City"},"contactPerson":"My contact"},"2":{"name":"Other Company","vatNumber":"9876543210","address":{"streetName":"Other street","streetNumber":"5","zipcode":"54321","city":"Other City"},"contactPerson":"Other contact"},"3":{"name":"My Company","vatNumber":"0123456789","address":{"streetName":"Sesame Street","streetNumber":"1","zipcode":"12345","city":"My City"},"contactPerson":"My contact"},"4":{"name":"Other Company","vatNumber":"9876543210","address":{"streetName":"Other street","streetNumber":"5","zipcode":"54321","city":"Other City"},"contactPerson":"Other contact"},"5":{"name":"My Company","vatNumber":"0123456789","address":{"streetName":"Sesame Street","streetNumber":"1","zipcode":"12345","city":"My City"},"contactPerson":"My contact"},"6":{"name":"Other Company","vatNumber":"9876543210","address":{"streetName":"Other street","streetNumber":"5","zipcode":"54321","city":"Other City"},"contactPerson":"Other contact"},"7":{"name":"My Company","vatNumber":"0123456789","address":{"streetName":"Sesame Street","streetNumber":"1","zipcode":"12345","city":"My City"},"contactPerson":"My contact"},"8":{"name":"Other Company","vatNumber":"9876543210","address":{"streetName":"Other street","streetNumber":"5","zipcode":"54321","city":"Other City"},"contactPerson":"Other contact"},"9":{"name":"My Company","vatNumber":"0123456789","address":{"streetName":"Sesame Street","streetNumber":"1","zipcode":"12345","city":"My City"},"contactPerson":"My contact"},"10":{"name":"Other Company","vatNumber":"9876543210","address":{"streetName":"Other street","streetNumber":"5","zipcode":"54321","city":"Other City"},"contactPerson":"Other contact"},"11":{"name":"My Company","vatNumber":"0123456789","address":{"streetName":"Sesame Street","streetNumber":"1","zipcode":"12345","city":"My City"},"contactPerson":"My contact"},"12":{"name":"Other Company","vatNumber":"9876543210","address":{"streetName":"Other street","streetNumber":"5","zipcode":"54321","city":"Other City"},"contactPerson":"Other contact"},"13":{"name":"My Company","vatNumber":"0123456789","address":{"streetName":"Sesame Street","streetNumber":"1","zipcode":"12345","city":"My City"},"contactPerson":"My contact"},"14":{"name":"Other Company","vatNumber":"9876543210","address":{"streetName":"Other street","streetNumber":"5","zipcode":"54321","city":"Other City"},"contactPerson":"Other contact"},"15":{"name":"My Company","vatNumber":"0123456789","address":{"streetName":"Sesame Street","streetNumber":"1","zipcode":"12345","city":"My City"},"contactPerson":"My contact"},"16":{"name":"Other Company","vatNumber":"9876543210","address":{"streetName":"Other street","streetNumber":"5","zipcode":"54321","city":"Other City"},"contactPerson":"Other contact"},"17":{"name":"My Company","vatNumber":"0123456789","address":{"streetName":"Sesame Street","streetNumber":"1","zipcode":"12345","city":"My City"},"contactPerson":"My contact"},"18":{"name":"Other Company","vatNumber":"9876543210","address":{"streetName":"Other street","streetNumber":"5","zipcode":"54321","city":"Other City"},"contactPerson":"Other contact"},"19":{"name":"My Company","vatNumber":"0123456789","address":{"streetName":"Sesame Street","streetNumber":"1","zipcode":"12345","city":"My City"},"contactPerson":"My contact"},"20":{"name":"Other Company","vatNumber":"9876543210","address":{"streetName":"Other street","streetNumber":"5","zipcode":"54321","city":"Other City"},"contactPerson":"Other contact"},"21":{"name":"My Company","vatNumber":"0123456789","address":{"streetName":"Sesame Street","streetNumber":"1","zipcode":"12345","city":"My City"},"contactPerson":"My contact"},"22":{"name":"Other Company","vatNumber":"9876543210","address":{"streetName":"Other street","streetNumber":"5","zipcode":"54321","city":"Other City"},"contactPerson":"Other contact"},"23":{"name":"My Company","vatNumber":"0123456789","address":{"streetName":"Sesame Street","streetNumber":"1","zipcode":"12345","city":"My City"},"contactPerson":"My contact"},"24":{"name":"Other Company","vatNumber":"9876543210","address":{"streetName":"Other street","streetNumber":"5","zipcode":"54321","city":"Other City"},"contactPerson":"Other contact"},"25":{"name":"My Company","vatNumber":"0123456789","address":{"streetName":"Sesame Street","streetNumber":"1","zipcode":"12345","city":"My City"},"contactPerson":"My contact"},"26":{"name":"Other Company","vatNumber":"9876543210","address":{"streetName":"Other street","streetNumber":"5","zipcode":"54321","city":"Other City"},"contactPerson":"Other contact"},"27":{"name":"My Company","vatNumber":"0123456789","address":{"streetName":"Sesame Street","streetNumber":"1","zipcode":"12345","city":"My City"},"contactPerson":"My contact"},"28":{"name":"Other Company","vatNumber":"9876543210","address":{"streetName":"Other street","streetNumber":"5","zipcode":"54321","city":"Other City"},"contactPerson":"Other contact"},"29":{"name":"My Company","vatNumber":"0123456789","address":{"streetName":"Sesame Street","streetNumber":"1","zipcode":"12345","city":"My City"},"contactPerson":"My contact"},"30":{"name":"Other Company","vatNumber":"9876543210","address":{"streetName":"Other street","streetNumber":"5","zipcode":"54321","city":"Other City"},"contactPerson":"Other contact"},"31":{"name":"My Company","vatNumber":"0123456789","address":{"streetName":"Sesame Street","streetNumber":"1","zipcode":"12345","city":"My City"},"contactPerson":"My contact"},"32":{"name":"Other Company","vatNumber":"9876543210","address":{"streetName":"Other street","streetNumber":"5","zipcode":"54321","city":"Other City"},"contactPerson":"Other contact"},"33":{"name":"My Company","vatNumber":"0123456789","address":{"streetName":"Sesame Street","streetNumber":"1","zipcode":"12345","city":"My City"},"contactPerson":"My contact"},"34":{"name":"Other Company","vatNumber":"9876543210","address":{"streetName":"Other street","streetNumber":"5","zipcode":"54321","city":"Other City"},"contactPerson":"Other contact"},"35":{"name":"My Company","vatNumber":"0123456789","address":{"streetName":"Sesame Street","streetNumber":"1","zipcode":"12345","city":"My City"},"contactPerson":"My contact"},"36":{"name":"Other Company","vatNumber":"9876543210","address":{"streetName":"Other street","streetNumber":"5","zipcode":"54321","city":"Other City"},"contactPerson":"Other contact"},"37":{"name":"My Company","vatNumber":"0123456789","address":{"streetName":"Sesame Street","streetNumber":"1","zipcode":"12345","city":"My City"},"contactPerson":"My contact"},"38":{"name":"Other Company","vatNumber":"9876543210","address":{"streetName":"Other street","streetNumber":"5","zipcode":"54321","city":"Other City"},"contactPerson":"Other contact"},"39":{"name":"My Company","vatNumber":"0123456789","address":{"streetName":"Sesame Street","streetNumber":"1","zipcode":"12345","city":"My City"},"contactPerson":"My contact"},"40":{"name":"Other Company","vatNumber":"9876543210","address":{"streetName":"Other street","streetNumber":"5","zipcode":"54321","city":"Other City"},"contactPerson":"Other contact"},"41":{"name":"My Company","vatNumber":"0123456789","address":{"streetName":"Sesame Street","streetNumber":"1","zipcode":"12345","city":"My City"},"contactPerson":"My contact"},"42":{"name":"Other Company","vatNumber":"9876543210","address":{"streetName":"Other street","streetNumber":"5","zipcode":"54321","city":"Other City"},"contactPerson":"Other contact"},"43":{"name":"My Company","vatNumber":"0123456789","address":{"streetName":"Sesame Street","streetNumber":"1","zipcode":"12345","city":"My City"},"contactPerson":"My contact"},"44":{"name":"Other Company","vatNumber":"9876543210","address":{"streetName":"Other street","streetNumber":"5","zipcode":"54321","city":"Other City"},"contactPerson":"Other contact"},"45":{"name":"My Company","vatNumber":"0123456789","address":{"streetName":"Sesame Street","streetNumber":"1","zipcode":"12345","city":"My City"},"contactPerson":"My contact"},"46":{"name":"Other Company","vatNumber":"9876543210","address":{"streetName":"Other street","streetNumber":"5","zipcode":"54321","city":"Other City"},"contactPerson":"Other contact"},"47":{"name":"My Company","vatNumber":"0123456789","address":{"streetName":"Sesame Street","streetNumber":"1","zipcode":"12345","city":"My City"},"contactPerson":"My contact"},"48":{"name":"Other Company","vatNumber":"9876543210","address":{"streetName":"Other street","streetNumber":"5","zipcode":"54321","city":"Other City"},"contactPerson":"Other contact"},"49":{"name":"My Company","vatNumber":"0123456789","address":{"streetName":"Sesame Street","streetNumber":"1","zipcode":"12345","city":"My City"},"contactPerson":"My contact"},"50":{"name":"Other Company","vatNumber":"9876543210","address":{"streetName":"Other street","streetNumber":"5","zipcode":"54321","city":"Other City"},"contactPerson":"Other contact"},"51":{"name":"My Company","vatNumber":"0123456789","address":{"streetName":"Sesame Street","streetNumber":"1","zipcode":"12345","city":"My City"},"contactPerson":"My contact"},"52":{"name":"Other Company","vatNumber":"9876543210","address":{"streetName":"Other street","streetNumber":"5","zipcode":"54321","city":"Other City"},"contactPerson":"Other contact"},"53":{"name":"My Company","vatNumber":"0123456789","address":{"streetName":"Sesame Street","streetNumber":"1","zipcode":"12345","city":"My City"},"contactPerson":"My contact"},"54":{"name":"Other Company","vatNumber":"9876543210","address":{"streetName":"Other street","streetNumber":"5","zipcode":"54321","city":"Other City"},"contactPerson":"Other contact"},"55":{"name":"My Company","vatNumber":"0123456789","address":{"streetName":"Sesame Street","streetNumber":"1","zipcode":"12345","city":"My City"},"contactPerson":"My contact"},"56":{"name":"Other Company","vatNumber":"9876543210","address":{"streetName":"Other street","streetNumber":"5","zipcode":"54321","city":"Other City"},"contactPerson":"Other contact"},"57":{"name":"My Company","vatNumber":"0123456789","address":{"streetName":"Sesame Street","streetNumber":"1","zipcode":"12345","city":"My City"},"contactPerson":"My contact"},"58":{"name":"Other Company","vatNumber":"9876543210","address":{"streetName":"Other street","streetNumber":"5","zipcode":"54321","city":"Other City"},"contactPerson":"Other contact"},"59":{"name":"My Company","vatNumber":"0123456789","address":{"streetName":"Sesame Street","streetNumber":"1","zipcode":"12345","city":"My City"},"contactPerson":"My contact"},"60":{"name":"Other Company","vatNumber":"9876543210","address":{"streetName":"Other street","streetNumber":"5","zipcode":"54321","city":"Other City"},"contactPerson":"Other contact"},"61":{"name":"My Company","vatNumber":"0123456789","address":{"streetName":"Sesame Street","streetNumber":"1","zipcode":"12345","city":"My City"},"contactPerson":"My contact"},"62":{"name":"Other Company","vatNumber":"9876543210","address":{"streetName":"Other street","streetNumber":"5","zipcode":"54321","city":"Other City"},"contactPerson":"Other contact"},"63":{"name":"My Company","vatNumber":"0123456789","address":{"streetName":"Sesame Street","streetNumber":"1","zipcode":"12345","city":"My City"},"contactPerson":"My contact"},"64":{"name":"Other Company","vatNumber":"9876543210","address":{"streetName":"Other street","streetNumber":"5","zipcode":"54321","city":"Other City"},"contactPerson":"Other contact"},"65":{"name":"My Company","vatNumber":"0123456789","address":{"streetName":"Sesame Street","streetNumber":"1","zipcode":"12345","city":"My City"},"contactPerson":"My contact"},"66":{"name":"Other Company","vatNumber":"9876543210","address":{"streetName":"Other street","streetNumber":"5","zipcode":"54321","city":"Other City"},"contactPerson":"Other contact"},"67":{"name":"My Company","vatNumber":"0123456789","address":{"streetName":"Sesame Street","streetNumber":"1","zipcode":"12345","city":"My City"},"contactPerson":"My contact"},"68":{"name":"Other Company","vatNumber":"9876543210","address":{"streetName":"Other street","streetNumber":"5","zipcode":"54321","city":"Other City"},"contactPerson":"Other contact"},"69":{"name":"My Company","vatNumber":"0123456789","address":{"streetName":"Sesame Street","streetNumber":"1","zipcode":"12345","city":"My City"},"contactPerson":"My contact"},"70":{"name":"Other Company","vatNumber":"9876543210","address":{"streetName":"Other street","streetNumber":"5","zipcode":"54321","city":"Other City"},"contactPerson":"Other contact"},"71":{"name":"My Company","vatNumber":"0123456789","address":{"streetName":"Sesame Street","streetNumber":"1","zipcode":"12345","city":"My City"},"contactPerson":"My contact"},"72":{"name":"Other Company","vatNumber":"9876543210","address":{"streetName":"Other street","streetNumber":"5","zipcode":"54321","city":"Other City"},"contactPerson":"Other contact"},"73":{"name":"My Company","vatNumber":"0123456789","address":{"streetName":"Sesame Street","streetNumber":"1","zipcode":"12345","city":"My City"},"contactPerson":"My contact"},"74":{"name":"Other Company","vatNumber":"9876543210","address":{"streetName":"Other street","streetNumber":"5","zipcode":"54321","city":"Other City"},"contactPerson":"Other contact"},"75":{"name":"My Company","vatNumber":"0123456789","address":{"streetName":"Sesame Street","streetNumber":"1","zipcode":"12345","city":"My City"},"contactPerson":"My contact"},"76":{"name":"Other Company","vatNumber":"9876543210","address":{"streetName":"Other street","streetNumber":"5","zipcode":"54321","city":"Other City"},"contactPerson":"Other contact"},"77":{"name":"My Company","vatNumber":"0123456789","address":{"streetName":"Sesame Street","streetNumber":"1","zipcode":"12345","city":"My City"},"contactPerson":"My contact"},"78":{"name":"Other Company","vatNumber":"9876543210","address":{"streetName":"Other street","streetNumber":"5","zipcode":"54321","city":"Other City"},"contactPerson":"Other contact"},"79":{"name":"My Company","vatNumber":"0123456789","address":{"streetName":"Sesame Street","streetNumber":"1","zipcode":"12345","city":"My City"},"contactPerson":"My contact"},"80":{"name":"Other Company","vatNumber":"9876543210","address":{"streetName":"Other street","streetNumber":"5","zipcode":"54321","city":"Other City"},"contactPerson":"Other contact"},"81":{"name":"My Company","vatNumber":"0123456789","address":{"streetName":"Sesame Street","streetNumber":"1","zipcode":"12345","city":"My City"},"contactPerson":"My contact"},"82":{"name":"Other Company","vatNumber":"9876543210","address":{"streetName":"Other street","streetNumber":"5","zipcode":"54321","city":"Other City"},"contactPerson":"Other contact"},"83":{"name":"My Company","vatNumber":"0123456789","address":{"streetName":"Sesame Street","streetNumber":"1","zipcode":"12345","city":"My City"},"contactPerson":"My contact"},"84":{"name":"Other Company","vatNumber":"9876543210","address":{"streetName":"Other street","streetNumber":"5","zipcode":"54321","city":"Other City"},"contactPerson":"Other contact"},"85":{"name":"My Company","vatNumber":"0123456789","address":{"streetName":"Sesame Street","streetNumber":"1","zipcode":"12345","city":"My City"},"contactPerson":"My contact"},"86":{"name":"Other Company","vatNumber":"9876543210","address":{"streetName":"Other street","streetNumber":"5","zipcode":"54321","city":"Other City"},"contactPerson":"Other contact"},"87":{"name":"My Company","vatNumber":"0123456789","address":{"streetName":"Sesame Street","streetNumber":"1","zipcode":"12345","city":"My City"},"contactPerson":"My contact"},"88":{"name":"Other Company","vatNumber":"9876543210","address":{"streetName":"Other street","streetNumber":"5","zipcode":"54321","city":"Other City"},"contactPerson":"Other contact"},"89":{"name":"My Company","vatNumber":"0123456789","address":{"streetName":"Sesame Street","streetNumber":"1","zipcode":"12345","city":"My City"},"contactPerson":"My contact"},"90":{"name":"Other Company","vatNumber":"9876543210","address":{"streetName":"Other street","streetNumber":"5","zipcode":"54321","city":"Other City"},"contactPerson":"Other contact"},"91":{"name":"My Company","vatNumber":"0123456789","address":{"streetName":"Sesame Street","streetNumber":"1","zipcode":"12345","city":"My City"},"contactPerson":"My contact"},"92":{"name":"Other Company","vatNumber":"9876543210","address":{"streetName":"Other street","streetNumber":"5","zipcode":"54321","city":"Other City"},"contactPerson":"Other contact"},"93":{"name":"My Company","vatNumber":"0123456789","address":{"streetName":"Sesame Street","streetNumber":"1","zipcode":"12345","city":"My City"},"contactPerson":"My contact"},"94":{"name":"Other Company","vatNumber":"9876543210","address":{"streetName":"Other street","streetNumber":"5","zipcode":"54321","city":"Other City"},"contactPerson":"Other contact"},"95":{"name":"My Company","vatNumber":"0123456789","address":{"streetName":"Sesame Street","streetNumber":"1","zipcode":"12345","city":"My City"},"contactPerson":"My contact"},"96":{"name":"Other Company","vatNumber":"9876543210","address":{"streetName":"Other street","streetNumber":"5","zipcode":"54321","city":"Other City"},"contactPerson":"Other contact"},"97":{"name":"My Company","vatNumber":"0123456789","address":{"streetName":"Sesame Street","streetNumber":"1","zipcode":"12345","city":"My City"},"contactPerson":"My contact"},"98":{"name":"Other Company","vatNumber":"9876543210","address":{"streetName":"Other street","streetNumber":"5","zipcode":"54321","city":"Other City"},"contactPerson":"Other contact"},"99":{"name":"My Company","vatNumber":"0123456789","address":{"streetName":"Sesame Street","streetNumber":"1","zipcode":"12345","city":"My City"},"contactPerson":"My contact"},"100":{"name":"Other Company","vatNumber":"9876543210","address":{"streetName":"Other street","streetNumber":"5","zipcode":"54321","city":"Other City"},"contactPerson":"Other contact"},"101":{"name":"My Company","vatNumber":"0123456789","address":{"streetName":"Sesame Street","streetNumber":"1","zipcode":"12345","city":"My City"},"contactPerson":"My contact"},"102":{"name":"Other Company","vatNumber":"9876543210","address":{"streetName":"Other street","streetNumber":"5","zipcode":"54321","city":"Other City"},"contactPerson":"Other contact"},"103":{"name":"My Company","vatNumber":"0123456789","address":{"streetName":"Sesame Street","streetNumber":"1","zipcode":"12345","city":"My City"},"contactPerson":"My contact"},"104":{"name":"Other Company","vatNumber":"9876543210","address":{"streetName":"Other street","streetNumber":"5","zipcode":"54321","city":"Other City"},"contactPerson":"Other contact"}}